[{"OBJECT_NAME":"STARLINK-2088","OBJECT_ID":"2021-005Y","EPOCH":"2026-03-09T23:04:40.937952","MEAN_MOTION":15.06392016,"ECCENTRICITY":0.00013542,"INCLINATION":53.0557,"RA_OF_ASC_NODE":60.3995,"ARG_OF_PERICENTER":93.3286,"MEAN_ANOMALY":266.7858,"EPHEMERIS_TYPE":0,"CLASSIFICATION_TYPE":"U","NORAD_CAT_ID":47371,"ELEMENT_SET_NO":999,"REV_AT_EPOCH":28308,"BSTAR":3.1978764e-5,"MEAN_MOTION_DOT":1.95e-6,"MEAN_MOTION_DDOT":0},{"OBJECT_NAME":"OBJECT M","OBJECT_ID":"2017-042M","EPOCH":"2026-03-09T22:38:39.337440","MEAN_MOTION":15.07991931,"ECCENTRICITY":0.0005117,"INCLINATION":97.4139,"RA_OF_ASC_NODE":234.2602,"ARG_OF_PERICENTER":83.1417,"MEAN_ANOMALY":277.0393,"EPHEMERIS_TYPE":0,"CLASSIFICATION_TYPE":"U","NORAD_CAT_ID":42836,"ELEMENT_SET_NO":999,"REV_AT_EPOCH":47205,"BSTAR":0.00047182615,"MEAN_MOTION_DOT":7.201e-5,"MEAN_MOTION_DDOT":0}]
